GSAT-19                 
1 42747U 17031A   26060.45659294  .00000107  00000+0  00000+0 0  9990
2 42747   0.0713  91.0800 0003569 289.2291 351.1701  1.00272787 32064
ECHOSTAR 21             
1 42749U 17032A   26060.36850338  .00000049  00000+0  00000+0 0  9990
2 42749   1.7947 348.6317 0002837 331.9653 341.4582  1.00270962 32018
BULGARIASAT-1           
1 42801U 17038A   26060.30492558 -.00000007  00000+0  00000+0 0  9990
2 42801   0.0530 278.0095 0003054  68.5992 284.1542  1.00272977 31754
HELLAS-SAT 3            
1 42814U 17040A   26060.24096530  .00000134  00000+0  00000+0 0  9990
2 42814   0.0688  52.8669 0004919 304.3021 287.5941  1.00273474 31722
GSAT-17                 
1 42815U 17040B   26060.51213068 -.00000276  00000+0  00000+0 0  9996
2 42815   0.0435 290.9974 0005311 354.8478 151.3324  1.00270714 31705
INTELSAT 35E (IS-35E)   
1 42818U 17041A   26060.44350201 -.00000257  00000+0  00000+0 0  9992
2 42818   0.0143 213.7902 0002190 122.7820 307.8024  1.00270313 31736
COSMOS 2520             
1 42907U 17046A   26060.24209197  .00000119  00000+0  00000+0 0  9997
2 42907   0.0284 107.7488 0000967 357.1565 186.2629  1.00270508 31312
TDRS 13                 
1 42915U 17047A   26060.37356590 -.00000120  00000+0  00000+0 0  9994
2 42915   3.4292 359.9846 0009906 100.1234 182.0633  1.00271824 31262
QZS-3 (MICHIBIKI-3)     
1 42917U 17048A   26060.46711506 -.00000367  00000+0  00000+0 0  9992
2 42917   0.0656 139.3123 0001538 199.1210 115.9626  1.00266891 31179
AMAZONAS 5              
1 42934U 17053A   26060.43501284 -.00000301  00000+0  00000+0 0  9992
2 42934   0.0122 294.0891 0005542  33.5250 287.2082  1.00272490 30968
ASIASAT 9               
1 42942U 17057A   26059.97217131 -.00000378  00000+0  00000+0 0  9991
2 42942   0.0137 130.9892 0002233 207.5455 292.3126  1.00269946 30773
INTELSAT 37E (IS-37E)   
1 42950U 17059A   26060.43239193 -.00000159  00000+0  00000+0 0  9994
2 42950   0.0147 121.3955 0002285 211.2444 324.2340  1.00271463 30987
BSAT-4A                 
1 42951U 17059B   26059.39911466  .00000000  00000+0  00000+0 0  9992
2 42951   0.0171 345.7407 0005158  36.6103  29.3916  1.00266961 30701
QZS-4 (MICHIBIKI-4)     
1 42965U 17062A   26052.57384556 -.00000296  00000+0  00000+0 0  9996
2 42965  40.1802 344.9639 0749564 269.6050 243.6917  1.00283220 30647
SES-11 (ECHOSTAR 105)   
1 42967U 17063A   26060.39905064 -.00000107  00000+0  00000+0 0  9992
2 42967   0.0290  67.8317 0002976 265.2954 224.7651  1.00271842 30645
KOREASAT 5A             
1 42984U 17067A   26060.39826602  .00000000  00000+0  00000+0 0  9996
2 42984   0.0182 145.8589 0001766 217.0042  52.8782  1.00269847 30446
ALCOMSAT 1              
1 43039U 17078A   26060.29955223 -.00000205  00000+0  00000+0 0  9999
2 43039   0.0290 164.8502 0002842 157.7667 279.5076  1.00270366 30210
SBIRS GEO-3 (USA 282)   
1 43162U 18009A   26060.41559941  .00000112  00000+0  00000+0 0  9998
2 43162   2.1209   6.7539 0002387 328.5581 174.0956  1.00271929 29761
AL YAH 3                
1 43174U 18012A   26060.44315955 -.00000174  00000+0  00000+0 0  9992
2 43174   1.2734  84.4933 0004252 263.1331 311.0359  1.00271868 29760
SES-14                  
1 43175U 18012B   26060.43769951  .00000000  00000+0  00000+0 0  9998
2 43175   0.0229 112.6453 0000971 230.9551 285.7293  1.00268835  5946
GOES 17                 
1 43226U 18022A   26060.43284451 -.00000200  00000+0  00000+0 0  9996
2 43226   0.6603  87.6177 0002408 216.9710 280.9615  1.00270589 29341
HISPASAT 30W-6          
1 43228U 18023A   26060.44116620 -.00000235  00000+0  00000+0 0  9990
2 43228   0.0441  42.3688 0005294 313.8848 291.7750  1.00271221 29329
SUPERBIRD-B3            
1 43271U 18033A   26060.37731838 -.00000111  00000+0  00000+0 0  9998
2 43271   0.0194 232.0360 0001393 107.7245 117.2157  1.00270996 28975
HYLAS 4                 
1 43272U 18033B   26060.29790556 -.00000252  00000+0  00000+0 0  9998
2 43272   0.0131 109.4475 0001185 242.8471 240.4993  1.00269456 28989
IRNSS-1I                
1 43286U 18035A   26060.12336356  .00000076  00000+0  00000+0 0  9994
2 43286  28.9216  75.8655 0019256 189.8352 352.6928  1.00276166 28990
USA 283                 
1 43339U 18036A   26059.54662199 -.00000335  00000+0  00000+0 0  9994
2 43339   0.0092 146.1125 0000609 207.6918 135.4057  1.00269721 24204
COSMOS 2526             
1 43432U 18037A   26060.47253968 -.00000363  00000+0  00000+0 0  9994
2 43432   0.0147 151.1615 0000577 307.3004 358.9681  1.00273026 28872
APSTAR-6C               
1 43450U 18041A   26060.50102257 -.00000336  00000+0  00000+0 0  9997
2 43450   0.0373 334.0041 0003211   2.3939 137.2461  1.00273607 28739
BANGABANDHUSAT-1        
1 43463U 18044A   26060.46711506 -.00000381  00000+0  00000+0 0  9992
2 43463   0.0251 111.5899 0002367 231.8390 103.0758  1.00272127 28622
SES-12                  
1 43488U 18049A   26060.51213044  .00000000  00000+0  00000+0 0  9991
2 43488   0.0220 113.3741 0002303 187.0163 138.3006  1.00269001 28333
FENGYUN 2H              
1 43491U 18050A   26060.39124598 -.00000144  00000+0  00000+0 0  9998
2 43491   2.7521  80.3886 0002074 173.4178 125.2779  1.00272561 28352
BEIDOU-2 IGSO-7         
1 43539U 18057A   26056.73984515 -.00000161  00000+0  00000+0 0  9993
2 43539  55.1859 164.0342 0099962 236.5988 133.5173  1.00284731 28015
